NORAD_CAT_ID,OBJECT_NAME,OBJECT_TYPE,EPOCH,MEAN_MOTION,ECCENTRICITY,INCLINATION,RA_OF_ASC_NODE,ARG_OF_PERICENTER,MEAN_ANOMALY,BSTAR,MEAN_MOTION_DOT,MEAN_MOTION_DDOT,TLE_LINE0,TLE_LINE1,TLE_LINE2,SEMIMAJOR_AXIS,PERIOD,APOGEE,PERIGEE,DECAYED
52672.0,STARLINK-4073,PAYLOAD,2022-10-21 17:46:41,15.08841458,0.0002096,53.2162,298.0328,36.2671,323.8463,-5.0493e-06,-3.69e-06,0.0,0 STARLINK-4073,1 52672U 22053S   22294.74075907 -.00000369  00000-0 -50493-5 0  9998,2 52672  53.2162 298.0328 0002096  36.2671 323.8463 15.08841458 24602,6917.876,95.437,541.191,538.2909999999998,0.0
52672.0,STARLINK-4073,PAYLOAD,2022-10-22 11:15:56,15.08844128,0.0002268,53.2176,294.7613,35.2465,324.8676,-0.00011252,-2.079e-05,0.0,0 STARLINK-4073,1 52672U 22053S   22295.46939948 -.00002079  00000-0 -11252-3 0  9990,2 52672  53.2176 294.7613 0002268  35.2465 324.8676 15.08844128 24286,6917.868,95.437,541.302,538.164,0.0
52672.0,STARLINK-4073,PAYLOAD,2022-10-22 17:37:28,15.08849355,0.0002290999999999,53.2174,293.5721,35.3315,324.7829,-7.866600000000001e-05,-1.5399999999999998e-05,0.0,0 STARLINK-4073,1 52672U 22053S   22295.73435468 -.00001540  00000-0 -78666-4 0  9993,2 52672  53.2174 293.5721 0002291  35.3315 324.7829 15.08849355 24750,6917.852,95.437,541.302,538.132,0.0
52672.0,STARLINK-4073,PAYLOAD,2022-10-23 11:06:42,15.08847021,0.0002017,53.2188,290.2986,35.9765,324.1363,1.7265e-06,-2.61e-06,0.0,0 STARLINK-4073,1 52672U 22053S   22296.46299016 -.00000261  00000-0  17265-5 0  9998,2 52672  53.2188 290.2986 0002017  35.9765 324.1363 15.08847021 24860,6917.859,95.437,541.119,538.3290000000002,0.0
52672.0,STARLINK-4073,PAYLOAD,2022-10-24 01:25:10,15.08848691,0.0002274,53.2173,287.6243,34.2586,325.8553,9.3418e-05,1.199e-05,0.0,0 STARLINK-4073,1 52672U 22053S   22297.05914665  .00001199  00000-0  93418-4 0  9991,2 52672  53.2173 287.6243 0002274  34.2586 325.8553 15.08848691 24524,6917.854,95.437,541.2919999999998,538.146,0.0
52672.0,STARLINK-4073,PAYLOAD,2022-10-24 06:11:19,15.08844417,0.0002264,53.2175,286.7318,34.8206,325.2934,7.0732e-05,8.38e-06,0.0,0 STARLINK-4073,1 52672U 22053S   22297.25786946  .00000838  00000-0  70732-4 0  9995,2 52672  53.2175 286.7318 0002264  34.8206 325.2934 15.08844417 24982,6917.8669999999975,95.437,541.298,538.1659999999998,0.0
52672.0,STARLINK-4073,PAYLOAD,2022-10-25 01:16:00,15.08819004,0.000224,53.216,283.1643,35.5872,324.5269,-0.0001694,-2.982e-05,0.0,0 STARLINK-4073,1 52672U 22053S   22298.05277979 -.00002982  00000-0 -16940-3 0  9999,2 52672  53.2160 283.1643 0002240  35.5872 324.5269 15.08819004 24672,6917.945,95.439,541.359,538.26,0.0
52672.0,STARLINK-4073,PAYLOAD,2022-10-25 09:12:54,15.08832926,0.0002177,53.2172,281.6765,33.7194,326.3936,1.4341e-07,-2.86e-06,0.0,0 STARLINK-4073,1 52672U 22053S   22298.38396803 -.00000286  00000-0  14341-6 0  9993,2 52672  53.2172 281.6765 0002177  33.7194 326.3936 15.08832926 24724,6917.901999999999,95.438,541.273,538.261,0.0
52672.0,STARLINK-4073,PAYLOAD,2022-10-26 02:42:08,15.08843275,0.0002214,53.217,278.4053,37.01300000000001,323.1015,5.6838e-05,6.16e-06,0.0,0 STARLINK-4073,1 52672U 22053S   22299.11260276  .00000616  00000-0  56838-4 0  9990,2 52672  53.2170 278.4053 0002214  37.0130 323.1015 15.08843275 24839,6917.87,95.437,541.2669999999998,538.2040000000002,0.0
52672.0,STARLINK-4073,PAYLOAD,2022-10-26 07:28:18,15.08845565,0.0002305,53.2172,277.5139,35.7455,324.3691,6.0906e-05,6.81e-06,0.0,0 STARLINK-4073,1 52672U 22053S   22299.31132183  .00000681  00000-0  60906-4 0  9990,2 52672  53.2172 277.5139 0002305  35.7455 324.3691 15.08845565 25290,6917.863,95.437,541.323,538.134,0.0
52672.0,STARLINK-4073,PAYLOAD,2022-10-26 15:25:14,15.08830199,0.0002329,53.2173,276.027,37.2009,322.9144,6.375800000000001e-05,7.26e-06,0.0,0 STARLINK-4073,1 52672U 22053S   22299.64253255  .00000726  00000-0  63758-4 0  9998,2 52672  53.2173 276.0270 0002329  37.2009 322.9144 15.08830199 24911,6917.91,95.438,541.387,538.164,0.0
52672.0,STARLINK-4073,PAYLOAD,2022-10-27 02:32:56,15.08839723,0.0002103,53.2175,273.9445,42.058,318.0573,0.00021779,3.18e-05,0.0,0 STARLINK-4073,1 52672U 22053S   22300.10620837  .00003180  00000-0  21779-3 0  9999,2 52672  53.2175 273.9445 0002103  42.0580 318.0573 15.08839723 24982,6917.880999999999,95.438,541.201,538.2909999999998,0.0
52672.0,STARLINK-4073,PAYLOAD,2022-10-27 07:19:05,15.08839983,0.0002211999999999,53.2174,273.0519,40.6578,319.4579,0.00021192,3.086e-05,0.0,0 STARLINK-4073,1 52672U 22053S   22300.30492871  .00003086  00000-0  21192-3 0  9990,2 52672  53.2174 273.0519 0002212  40.6578 319.4579 15.08839983 25447,6917.88,95.438,541.276,538.215,0.0
52672.0,STARLINK-4073,PAYLOAD,2022-10-27 15:16:01,15.0883966,0.0002238,53.2171,271.5662,36.7204,323.3941,7.804e-05,9.54e-06,0.0,0 STARLINK-4073,1 52672U 22053S   22300.63613253  .00000954  00000-0  78040-4 0  9991,2 52672  53.2171 271.5662 0002238  36.7204 323.3941 15.08839660 25490,6917.880999999999,95.438,541.295,538.198,0.0
52672.0,STARLINK-4073,PAYLOAD,2022-10-28 03:59:05,15.08857391,0.0002282,53.2172,269.1867,39.031,321.0846,0.0001123,1.5e-05,0.0,0 STARLINK-4073,1 52672U 22053S   22301.16603903  .00001500  00000-0  11230-3 0  9996,2 52672  53.2172 269.1867 0002282  39.0310 321.0846 15.08857391 25146,6917.8269999999975,95.436,541.271,538.114,0.0
52672.0,STARLINK-4073,PAYLOAD,2022-10-28 05:34:28,15.08857989,0.0002292,53.217,268.889,38.1678,321.9476,0.00011606,1.56e-05,0.0,0 STARLINK-4073,1 52672U 22053S   22301.23227837  .00001560  00000-0  11606-3 0  9995,2 52672  53.2170 268.8890 0002292  38.1678 321.9476 15.08857989 25583,6917.825,95.436,541.276,538.105,0.0
52672.0,STARLINK-4073,PAYLOAD,2022-10-28 16:42:11,15.08848034,0.000234,53.2166,266.8079,40.1111,320.0054,0.0001095999999999,1.457e-05,0.0,0 STARLINK-4073,1 52672U 22053S   22301.69596118  .00001457  00000-0  10960-3 0  9993,2 52672  53.2166 266.8079 0002340  40.1111 320.0054 15.08848034 25655,6917.856,95.437,541.34,538.102,0.0
52672.0,STARLINK-4073,PAYLOAD,2022-10-29 07:00:39,15.08834138,0.0002193,53.218,264.1333,41.9436,318.1723,0.00024768,3.655e-05,0.0,0 STARLINK-4073,1 52672U 22053S   22302.29212779  .00003655  00000-0  24768-3 0  9991,2 52672  53.2180 264.1333 0002193  41.9436 318.1723 15.08834138 25741,6917.898,95.438,541.28,538.246,0.0
52672.0,STARLINK-4073,PAYLOAD,2022-10-29 14:57:34,15.08845486,0.0002103,53.2181,262.6438,39.9931,320.1216,0.00010225,1.34e-05,0.0,0 STARLINK-4073,1 52672U 22053S   22302.62332000  .00001340  00000-0  10225-3 0  9990,2 52672  53.2181 262.6438 0002103  39.9931 320.1216 15.08845486 25792,6917.864000000001,95.437,541.183,538.274,0.0
52672.0,STARLINK-4073,PAYLOAD,2022-10-30 02:05:16,15.08850062,0.000222,53.2177,260.5626,41.0941,319.0218,0.00011129,1.484e-05,0.0,0 STARLINK-4073,1 52672U 22053S   22303.08699790  .00001484  00000-0  11129-3 0  9996,2 52672  53.2177 260.5626 0002220  41.0941 319.0218 15.08850062 25861,6917.85,95.437,541.25,538.179,0.0
52672.0,STARLINK-4073,PAYLOAD,2022-10-30 21:09:54,15.08835423,0.0002295,53.217,256.9956,38.9773,321.1384,4.7408e-05,4.66e-06,0.0,0 STARLINK-4073,1 52672U 22053S   22303.88188614  .00000466  00000-0  47408-4 0  9991,2 52672  53.2170 256.9956 0002295  38.9773 321.1384 15.08835423 25984,6917.894,95.438,541.347,538.172,0.0
52672.0,STARLINK-4073,PAYLOAD,2022-10-31 08:17:37,15.0883341,0.0002221,53.2175,254.9132,40.9204,319.1954,-2.9176e-05,-7.53e-06,0.0,0 STARLINK-4073,1 52672U 22053S   22304.34557130 -.00000753  00000-0 -29176-4 0  9999,2 52672  53.2175 254.9132 0002221  40.9204 319.1954 15.08833410 26057,6917.901,95.438,541.302,538.229,0.0
52672.0,STARLINK-4073,PAYLOAD,2022-10-31 21:00:41,15.08842044,0.000225,53.2173,252.5346,35.3634,324.7507,7.2666e-05,8.68e-06,0.0,0 STARLINK-4073,1 52672U 22053S   22304.87548325  .00000868  00000-0  72666-4 0  9990,2 52672  53.2173 252.5346 0002250  35.3634 324.7507 15.08842044 26131,6917.874,95.437,541.2959999999998,538.183,0.0
52672.0,STARLINK-4073,PAYLOAD,2022-11-01 03:22:14,15.08840609,0.0002026999999999,53.2173,251.345,33.6126,326.4994,0.00012055,1.631e-05,0.0,0 STARLINK-4073,1 52672U 22053S   22305.14044343  .00001631  00000-0  12055-3 0  9996,2 52672  53.2173 251.3450 0002027  33.6126 326.4994 15.08840609 26171,6917.879,95.438,541.146,538.341,0.0
52672.0,STARLINK-4073,PAYLOAD,2022-11-02 03:13:01,15.08835724,0.0002177,53.2173,246.8848,36.6904,323.4237,0.0001748,2.495e-05,0.0,0 STARLINK-4073,1 52672U 22053S   22306.13404965  .00002495  00000-0  17480-3 0  9992,2 52672  53.2173 246.8848 0002177  36.6904 323.4237 15.08835724 25891,6917.893,95.438,541.264,538.252,0.0
52672.0,STARLINK-4073,PAYLOAD,2022-11-02 12:45:21,15.08830477,0.0002194,53.2171,245.1005,36.7515,323.3627,0.00011732,1.579e-05,0.0,0 STARLINK-4073,1 52672U 22053S   22306.53149652  .00001579  00000-0  11732-3 0  9991,2 52672  53.2171 245.1005 0002194  36.7515 323.3627 15.08830477 25953,6917.909000000002,95.438,541.2919999999998,538.257,0.0
52672.0,STARLINK-4073,PAYLOAD,2022-11-03 03:03:48,15.08841599,0.0002186,53.2167,242.4223,33.1364,326.9765,7.1664e-05,8.53e-06,0.0,0 STARLINK-4073,1 52672U 22053S   22307.12764989  .00000853  00000-0  71664-4 0  9998,2 52672  53.2167 242.4223 0002186  33.1364 326.9765 15.08841599 26044,6917.876,95.437,541.253,538.2280000000002,0.0
52672.0,STARLINK-4073,PAYLOAD,2022-11-03 04:39:12,15.08841198,0.00022,53.2168,242.1251,32.7409,327.3719,6.5497e-05,7.54e-06,0.0,0 STARLINK-4073,1 52672U 22053S   22307.19389035  .00000754  00000-0  65497-4 0  9997,2 52672  53.2168 242.1251 0002200  32.7409 327.3719 15.08841198 26482,6917.877,95.437,541.264,538.22,0.0
52672.0,STARLINK-4073,PAYLOAD,2022-11-03 18:57:40,15.08838572,0.0002177,53.2171,239.4483,38.2344,321.8802,0.00020093,2.911e-05,0.0,0 STARLINK-4073,1 52672U 22053S   22307.79004727  .00002911  00000-0  20093-3 0  9994,2 52672  53.2171 239.4483 0002177  38.2344 321.8802 15.08838572 26578,6917.885,95.438,541.256,538.244,0.0
